     2.10           G: GLONASS NAV DATA                     RINEX VERSION / TYPE
teqc  2015Jun23                         20211007 01:25:50UTCPGM / RUN BY / DATE
Linux 2.4.21-27.ELsmp|Opteron|gcc -static|Linux x86_64|=+   COMMENT
  2021     9    13   -0.000000000000D+00                    CORR TO SYSTEM TIME
                                                            END OF HEADER
19 21  9 14 14 45  0.0-1.593399792910D-04-9.094947017729D-13 5.220000000000D+04
   -1.770415527344D+04-1.576651573181D+00 9.313225746155D-10 0.000000000000D+00
    1.303926220703D+04 8.434686660767D-01 9.313225746155D-10 3.000000000000D+00
   -1.294665917969D+04 3.004682540894D+00 9.313225746155D-10 0.000000000000D+00
20 21  9 14 14 45  0.0-5.587376654148D-05-0.000000000000D+00 5.346000000000D+04
    1.529849121094D+03-2.963915824890D+00 1.862645149231D-09 0.000000000000D+00
    1.044158447266D+04 1.170140266418D+00 2.793967723846D-09 2.000000000000D+00
   -2.321612451172D+04 3.336448669434D-01 9.313225746155D-10 0.000000000000D+00
 6 21  9 14 15 15  0.0-3.693625330925D-06-1.818989403546D-12 5.400000000000D+04
    3.721812500000D+03 1.678628921509D-01 9.313225746155D-10 0.000000000000D+00
    2.454237548828D+04 7.913818359375D-01 9.313225746155D-10-4.000000000000D+00
    5.803150390625D+03-3.447752952576D+00-2.793967723846D-09 0.000000000000D+00
20 21  9 14 15 15  0.0-5.587469786406D-05-0.000000000000D+00 5.400000000000D+04
   -3.492137207031D+03-2.572828292847D+00 1.862645149231D-09 0.000000000000D+00
    1.288285693359D+04 1.511437416077D+00 1.862645149231D-09 2.000000000000D+00
   -2.172522998047D+04 1.312225341797D+00 9.313225746155D-10 0.000000000000D+00
 5 21  9 14 15 15  0.0 7.894076406956D-05 0.000000000000D+00 5.400000000000D+04
   -6.162593750000D+03 1.323108673096D-01 1.862645149231D-09 0.000000000000D+00
    2.070497070312D+04-1.857722282410D+00 1.862645149231D-09 1.000000000000D+00
   -1.353858544922D+04-2.902247428894D+00-0.000000000000D+00 0.000000000000D+00
 9 21  9 14 15 15  0.0 1.320708543062D-05 2.728484105319D-12 5.400000000000D+04
    1.084756591797D+04-2.028439521790D+00-0.000000000000D+00 0.000000000000D+00
    1.547146240234D+04-1.179477691650D+00-0.000000000000D+00-2.000000000000D+00
    1.719701123047D+04 2.336693763733D+00-2.793967723846D-09 0.000000000000D+00
18 21  9 14 15 15  0.0 9.040348231792D-05 9.094947017729D-13 5.400000000000D+04
   -2.235325439453D+04 1.172662734985D+00-0.000000000000D+00 0.000000000000D+00
    8.363280761719D+03-4.261751174927D-01-9.313225746155D-10-3.000000000000D+00
    8.957854980469D+03 3.331923484802D+00 0.000000000000D+00 0.000000000000D+00
19 21  9 14 15 15  0.0-1.593418419361D-04-9.094947017729D-13 5.400000000000D+04
   -1.978957031250D+04-7.357311248779D-01 9.313225746155D-10 0.000000000000D+00
    1.445497900391D+04 6.846876144409D-01 0.000000000000D+00 3.000000000000D+00
   -7.107977539062D+03 3.440655708313D+00 0.000000000000D+00 0.000000000000D+00
 7 21  9 14 15 15  0.0-4.119798541069D-05 0.000000000000D+00 5.475000000000D+04
    9.507979003906D+03 1.188592910767D-01-0.000000000000D+00 0.000000000000D+00
    1.319270703125D+04 2.685659408569D+00-0.000000000000D+00 5.000000000000D+00
    1.966713525391D+04-1.866286277771D+00-2.793967723846D-09 0.000000000000D+00
 6 21  9 14 15 45  0.0-3.698281943798D-06-1.818989403546D-12 5.580000000000D+04
    4.025133789062D+03 1.285200119019D-01 1.862645149231D-09 0.000000000000D+00
    2.516992236328D+04-9.584999084473D-02 9.313225746155D-10-4.000000000000D+00
   -5.472514648438D+02-3.562339782715D+00-1.862645149231D-09 0.000000000000D+00
 7 21  9 14 15 45  0.0-4.119798541069D-05 0.000000000000D+00 5.580000000000D+04
    1.002277978516D+04 4.240636825562D-01 0.000000000000D+00 0.000000000000D+00
    1.752595166016D+04 2.091179847717D+00 0.000000000000D+00 5.000000000000D+00
    1.559163769531D+04-2.632833480835D+00-2.793967723846D-09 0.000000000000D+00
 5 21  9 14 15 45  0.0 7.894169539213D-05 9.094947017729D-13 5.580000000000D+04
   -6.230972656250D+03-2.353439331055D-01 1.862645149231D-09 0.000000000000D+00
    1.676411230469D+04-2.482639312744D+00 1.862645149231D-09 1.000000000000D+00
   -1.817082812500D+04-2.211249351501D+00 9.313225746155D-10 0.000000000000D+00
 9 21  9 14 15 45  0.0 1.321174204350D-05 2.728484105319D-12 5.580000000000D+04
    6.636583496094D+03-2.621176719666D+00-9.313225746155D-10 0.000000000000D+00
    1.343297412109D+04-1.048169136047D+00-0.000000000000D+00-2.000000000000D+00
    2.068725341797D+04 1.516200065613D+00-2.793967723846D-09 0.000000000000D+00
18 21  9 14 15 45  0.0 9.040534496307D-05 9.094947017729D-13 5.580000000000D+04
   -1.973752343750D+04 1.690576553345D+00-9.313225746155D-10 0.000000000000D+00
    7.029939453125D+03-1.070495605469D+00-1.862645149231D-09-3.000000000000D+00
    1.453079785156D+04 2.820024490356D+00-0.000000000000D+00 0.000000000000D+00
19 21  9 14 15 45  0.0-1.593446359038D-04-9.094947017729D-13 5.580000000000D+04
   -2.037189697266D+04 7.362842559814D-02 0.000000000000D+00 0.000000000000D+00
    1.534757568359D+04 2.665424346924D-01-0.000000000000D+00 3.000000000000D+00
   -7.201850585938D+02 3.610843658447D+00 0.000000000000D+00 0.000000000000D+00
20 21  9 14 15 45  0.0-5.587656050920D-05-0.000000000000D+00 5.580000000000D+04
   -7.601614746094D+03-1.964948654175D+00 1.862645149231D-09 0.000000000000D+00
    1.574767480469D+04 1.628832817078D+00 9.313225746155D-10 2.000000000000D+00
   -1.855292236328D+04 2.189712524414D+00 9.313225746155D-10 0.000000000000D+00
 6 21  9 14 16 15  0.0-3.702938556671D-06-1.818989403546D-12 5.760000000000D+04
    4.042181152344D+03-1.465024948120D-01 1.862645149231D-09 0.000000000000D+00
    2.422617919922D+04-9.352712631226D-01 9.313225746155D-10-4.000000000000D+00
   -6.855317382812D+03-3.401060104370D+00-9.313225746155D-10 0.000000000000D+00
 7 21  9 14 16 15  0.0-4.119705408812D-05 0.000000000000D+00 5.760000000000D+04
    1.090956689453D+04 5.221290588379D-01 9.313225746155D-10 0.000000000000D+00
    2.061181347656D+04 1.315708160400D+00 0.000000000000D+00 5.000000000000D+00
    1.031083935547D+04-3.196723937988D+00-2.793967723846D-09 0.000000000000D+00
 9 21  9 14 16 15  0.0 1.321732997894D-05 2.728484105319D-12 5.760000000000D+04
    1.542549804688D+03-2.996270179749D+00-9.313225746155D-10 0.000000000000D+00
    1.181300488281D+04-7.263612747192D-01-9.313225746155D-10-2.000000000000D+00
    2.258467480469D+04 5.782537460327D-01-1.862645149231D-09 0.000000000000D+00
 5 21  9 14 16 15  0.0 7.894262671471D-05 9.094947017729D-13 5.760000000000D+04
   -7.079910156250D+03-7.190275192261D-01 1.862645149231D-09 0.000000000000D+00
    1.192633056641D+04-2.844169616699D+00 9.313225746155D-10 1.000000000000D+00
   -2.139625146484D+04-1.349309921265D+00 1.862645149231D-09 0.000000000000D+00
19 21  9 14 16 15  0.0-1.593474298716D-04-9.094947017729D-13 5.760000000000D+04
   -1.961064111328D+04 7.403335571289D-01-0.000000000000D+00 0.000000000000D+00
    1.528710302734D+04-3.626680374146D-01-9.313225746155D-10 3.000000000000D+00
    5.723243164062D+03 3.502063751221D+00 0.000000000000D+00 0.000000000000D+00
20 21  9 14 16 15  0.0-5.587842315435D-05-0.000000000000D+00 5.760000000000D+04
   -1.049714160156D+04-1.242876052856D+00 1.862645149231D-09 0.000000000000D+00
    1.858084619141D+04 1.471434593201D+00 0.000000000000D+00 2.000000000000D+00
   -1.394405371094D+04 2.897986412048D+00 9.313225746155D-10 0.000000000000D+00
 6 21  9 14 16 45  0.0-3.707595169544D-06-1.818989403546D-12 5.940000000000D+04
    3.381701660156D+03-6.136541366577D-01 2.793967723846D-09 0.000000000000D+00
    2.189670068359D+04-1.619317054749D+00 9.313225746155D-10-4.000000000000D+00
   -1.263281005859D+04-2.976704597473D+00-0.000000000000D+00 0.000000000000D+00
 7 21  9 14 16 45  0.0-4.119705408812D-05-0.000000000000D+00 5.940000000000D+04
    1.175341650391D+04 3.733282089233D-01 1.862645149231D-09 0.000000000000D+00
    2.221771728516D+04 4.659223556519D-01 9.313225746155D-10 5.000000000000D+00
    4.231952636719D+03-3.513719558716D+00-2.793967723846D-09 0.000000000000D+00
19 21  9 14 16 45  0.0-1.593492925167D-04-9.094947017729D-13 5.940000000000D+04
   -1.784387744141D+04 1.179763793945D+00-9.313225746155D-10 0.000000000000D+00
    1.396698876953D+04-1.116009712219D+00-9.313225746155D-10 3.000000000000D+00
    1.172445166016D+04 3.122666358948D+00-0.000000000000D+00 0.000000000000D+00
 5 21  9 14 16 45  0.0 7.894355803728D-05 9.094947017729D-13 5.940000000000D+04
   -8.826801269531D+03-1.214765548706D+00 1.862645149231D-09 0.000000000000D+00
    6.707333496094D+03-2.903562545776D+00 9.313225746155D-10 1.000000000000D+00
   -2.296575000000D+04-3.833141326904D-01 1.862645149231D-09 0.000000000000D+00
20 21  9 14 16 45  0.0-5.587935447693D-05-0.000000000000D+00 5.940000000000D+04
   -1.207779101562D+04-5.236701965332D-01 9.313225746155D-10 0.000000000000D+00
    2.087592480469D+04 1.034119606018D+00-0.000000000000D+00 2.000000000000D+00
   -8.255099609375D+03 3.381963729858D+00 0.000000000000D+00 0.000000000000D+00
21 21  9 14 16 45  0.0-2.392353489995D-04-2.728484105319D-12 5.955000000000D+04
    2.572487304688D+03-1.741928100586D+00 2.793967723846D-09 0.000000000000D+00
    1.289643017578D+04 2.440008163452D+00 9.313225746155D-10 4.000000000000D+00
   -2.186751074219D+04 1.230761528015D+00 9.313225746155D-10 0.000000000000D+00
 9 21  9 14 16 45  0.0 1.322105526924D-05 1.818989403546D-12 5.979000000000D+04
   -3.981323242188D+03-3.091661453247D+00-1.862645149231D-09 0.000000000000D+00
    1.088165966797D+04-2.991666793823D-01-9.313225746155D-10-2.000000000000D+00
    2.274150292969D+04-4.053382873535D-01-1.862645149231D-09 0.000000000000D+00
 6 21  9 14 17 15  0.0-3.711320459843D-06-1.818989403546D-12 6.120000000000D+04
    1.765352539062D+03-1.192811012268D+00 2.793967723846D-09 0.000000000000D+00
    1.853962744141D+04-2.066367149353D+00 9.313225746155D-10-4.000000000000D+00
   -1.743316210938D+04-2.322459220886D+00 0.000000000000D+00 0.000000000000D+00
